OBJECT_NAME,OBJECT_ID,EPOCH,MEAN_MOTION,ECCENTRICITY,INCLINATION,RA_OF_ASC_NODE,ARG_OF_PERICENTER,MEAN_ANOMALY,EPHEMERIS_TYPE,CLASSIFICATION_TYPE,NORAD_CAT_ID,ELEMENT_SET_NO,REV_AT_EPOCH,BSTAR,MEAN_MOTION_DOT,MEAN_MOTION_DDOT
SAUDISAT 2,2004-025F,2026-06-19T13:41:27.662784,14.56685005,.00235186,98.5507,170.6140,290.5721,69.2953,0,U,28371,999,16609,.49334079E-4,.171E-5,0
COSMOS 2407,2004-028A,2026-06-19T18:06:22.739904,13.76334951,.0037886,82.9607,72.9329,244.4854,169.8403,0,U,28380,999,10023,.45561E-4,.6E-6,0
COSMOS 2414,2005-002A,2026-06-19T16:47:16.388736,13.87926686,.0039322,82.9497,41.7461,323.9905,35.8610,0,U,28521,999,8416,.19343E-4,.38E-6,0
INMARSAT 4-F1,2005-009A,2026-06-19T14:11:30.181056,1.00271879,.0002618,5.1720,42.7716,43.3469,212.6804,0,U,28628,999,7769,0,.25E-6,0
SJ-7,2005-024A,2026-06-19T15:43:48.050400,15.21573761,.0016103,97.7281,200.8255,29.8299,330.3850,0,U,28737,999,14840,.28145E-3,.6294E-4,0
CUBESAT XI-V,2005-043F,2026-06-19T08:57:11.428416,14.72636457,.00137979,98.2987,326.0406,193.6141,166.4695,0,U,28895,999,10207,.17676343E-3,.1074E-4,0
HINODE (SOLAR-B),2006-041A,2026-06-19T13:40:46.639200,14.68625622,.00159689,98.0545,186.6874,281.5251,78.4161,0,U,29479,999,5522,.90631237E-4,.478E-5,0
SHIJIAN-6 02B (SJ-6 02B),2006-046B,2026-06-19T19:29:40.197120,15.01381763,.0015415,97.7153,199.8551,53.0599,307.2034,0,U,29506,999,7113,.68818E-4,.828E-5,0
DMSP 5D-3 F17 (USA 191),2006-050A,2026-06-19T18:51:51.631200,14.14993179,.0011079,98.7378,177.3029,52.6831,307.5351,0,U,29522,999,1279,.17477E-4,-.9E-7,0
LAPAN-TUBSAT,2007-001A,2026-06-19T19:31:00.185376,14.85950772,.0012107,98.1341,170.0966,170.7462,189.3978,0,U,29709,999,5154,.35303E-4,.251E-5,0
HAIYANG-1B,2007-010A,2026-06-19T14:12:29.990592,14.31027414,.00131805,98.3495,152.3440,188.9814,171.1136,0,U,31113,999,98,.40663001E-4,.65E-6,0
COSMO-SKYMED 2,2007-059A,2026-06-19T20:40:30.676224,14.82156816,.000136,97.8887,354.4205,88.1454,271.9915,0,U,32376,999,240,.40322E-4,.269E-5,0
CARTOSAT-2A,2008-021A,2026-06-19T21:18:04.783104,14.79240850,.0013237,97.7626,219.5043,101.0865,259.1836,0,U,32783,999,97920,.48811E-4,.313E-5,0
CUTE-1.7+APD II (CO-65),2008-021C,2026-06-19T21:36:33.397056,15.09473052,.0009494,97.8277,152.3753,30.2474,329.9300,0,U,32785,999,98560,.30099E-3,.4758E-4,0
SEEDS II (CO-66),2008-021J,2026-06-19T13:13:28.513344,15.32817335,.00007441,97.7522,168.5617,349.7207,10.4018,0,U,32791,999,98765,.46962589E-3,.14814E-3,0
YUBILEINY (RS30),2008-025A,2026-06-19T20:01:59.482272,12.43179151,.0018759,82.5040,353.7925,307.8284,52.1097,0,U,32953,999,82002,-.49497E-3,-.59E-6,0
FENGYUN 3A,2008-026A,2026-06-19T17:25:00.963840,14.19571589,.0009687,98.6883,111.5114,117.0201,243.1965,0,U,32958,999,93576,.4912E-4,.6E-6,0
HUANJING 1A (HJ-1A),2008-041A,2026-06-19T20:43:19.905312,14.83992527,.0020197,97.6685,156.5986,126.3666,233.9416,0,U,33320,999,95880,.15263E-3,.1223E-4,0
HUANJING 1B (HJ-1B),2008-041B,2026-06-19T21:37:41.291040,14.83317865,.0036274,97.6521,159.7982,172.0353,188.1445,0,U,33321,999,95881,-.60818E-5,-.103E-5,0
SHIJIAN-6 03A (SJ-6 03A),2008-053A,2026-06-19T19:39:09.472032,15.17184279,.0011406,97.8406,204.2311,12.1241,348.0263,0,U,33408,999,96336,.15105E-3,.2931E-4,0
SHIJIAN-6 03B (SJ-6 03B),2008-053B,2026-06-19T19:50:54.761280,15.04308123,.0020491,97.8565,190.7628,36.3902,323.8712,0,U,33409,999,96314,.65628E-5,.26E-6,0
